{
"type": "FeatureCollection",
"name": "If_remaining_segments",
"crs": { "type": "name", "properties": { "name": "urn:ogc:def:crs:OGC:1.3:CRS84" } },
"features": [
{ "type": "Feature", "properties": { "element": "way", "id": 53472035, "highway": "footway", "crossing": null, "bus": null, "description": null, "name": "七星山步道冷水坑線", "name:en": null, "name:zh": null, "name:zh-Hans": null, "name:zh-Hant": null, "network": null, "public_transport": null, "ref": null, "shelter": null, "ele": null, "local_ref": null, "bench": null, "network:en": null, "network:nan": null, "network:nan-Hant": null, "network:nan-Latn-pehoeji": null, "network:nan-Latn-tailo": null, "network:wikidata": null, "network:zh": null, "wheelchair": null, "old_name": null, "old_name:en": null, "old_name:zh": null, "bin": null, "check_date:shelter": null, "note": null, "lit": null, "passenger_information_display": null, "source": null, "alt_name": null, "alt_name:en": null, "crossing:markings": null, "crossing:island": null, "crossing:signals": null, "distance": null, "information": null, "tourism": null, "nat_ref": null, "level": null, "crossing_ref": null, "name:nan": null, "name:nan-Hant": null, "name:nan-Latn-pehoeji": null, "name:nan-Latn-tailo": null, "network:wikipedia": null, "loc_ref": null, "review:PTX": null, "oneway": null, "ref:en": null, "ref:zh": null, "surface": "sett", "incline": "up", "sac_scale": "hiking", "trail_visibility": "excellent", "lanes": null, "sidewalk:right": null, "service": null, "name:lzh": null, "bicycle": null, "tracktype": null, "sidewalk": null, "access": null, "bridge": null, "layer": null, "lane_markings": null, "name:ja": null, "tunnel": null, "handrail": null, "ramp": null, "step_count": null, "bridge:structure": null, "motor_vehicle": null, "cycleway:both": null, "foot": null, "footway": null, "wikidata": null, "horse": null, "maxspeed": null, "width": null, "informal": null, "motorcycle": null, "note:surface": null, "visibility": null, "area": null, "obstacle": null, "leisure": null, "surface_1": null, "bridge:support": null, "ford": null, "survey_date": null, "fixme": null, "man_made": null, "material": null, "operator": null, "operator:type": null, "vehicle": null, "emergency": null, "waterway": null, "bridge:name": null, "covered": null, "sidewalk:left": null, "smoothness": null, "way_id": "('way', 53472035)", "name_display": "七星山步道冷水坑線", "highway_raw": "footway", "highway_category": "trail", "way_id_str": "('way', 53472035)", "source_type": "named", "orig_index": 14, "orig_name": "七星山步道冷水坑線", "bridge_flag": false, "steps_flag": false, "version": null, "changeset": null, "timestamp": null, "user": null, "uid": null, "highway_api": null, "surface_api": null, "trail_visibility_api": null, "bridge_api": null, "node_ids_str": null }, "geometry": { "type": "LineString", "coordinates": [ [ 121.5584708, 25.1652406 ], [ 121.5584412, 25.1652274 ], [ 121.5583857, 25.1651865 ], [ 121.5583355, 25.1651807 ], [ 121.55828, 25.1651728 ], [ 121.558086, 25.1651034 ], [ 121.5580066, 25.1651482 ], [ 121.5579691, 25.1651948 ], [ 121.557946, 25.1652022 ], [ 121.5578977, 25.1651973 ], [ 121.5578383, 25.1651735 ], [ 121.5577715, 25.1651913 ], [ 121.5577417, 25.1652051 ], [ 121.557718, 25.1652043 ], [ 121.5576857, 25.1651897 ], [ 121.5576388, 25.1651618 ], [ 121.5575874, 25.165162 ], [ 121.5575513, 25.1651716 ], [ 121.5575257, 25.1651919 ], [ 121.5574902, 25.1652173 ], [ 121.5574933, 25.1652411 ], [ 121.5575218, 25.165304 ], [ 121.5575171, 25.1653152 ], [ 121.5574567, 25.1653127 ], [ 121.5574224, 25.1653193 ], [ 121.5574166, 25.165373 ], [ 121.5573834, 25.1654231 ], [ 121.5573522, 25.1654387 ], [ 121.557347, 25.1654499 ], [ 121.5574175, 25.1655138 ], [ 121.5574313, 25.165537 ], [ 121.5574356, 25.1655613 ], [ 121.5573607, 25.1657069 ], [ 121.5573568, 25.1657391 ], [ 121.5573631, 25.1657825 ], [ 121.557364, 25.1658187 ], [ 121.5573465, 25.1659082 ], [ 121.5573084, 25.1659393 ], [ 121.5572284, 25.1660022 ], [ 121.5571981, 25.1660182 ], [ 121.5571592, 25.166016 ], [ 121.5571147, 25.1660161 ], [ 121.5570941, 25.1660133 ], [ 121.5570691, 25.1660002 ], [ 121.556977, 25.1659827 ], [ 121.5569089, 25.1659311 ] ] } },
{ "type": "Feature", "properties": { "element": "way", "id": 421201235, "highway": "steps", "crossing": null, "bus": null, "description": null, "name": "七星山步道主峰-東峰稜線", "name:en": null, "name:zh": "七星山步道主峰-東峰稜線", "name:zh-Hans": null, "name:zh-Hant": null, "network": null, "public_transport": null, "ref": null, "shelter": null, "ele": null, "local_ref": null, "bench": null, "network:en": null, "network:nan": null, "network:nan-Hant": null, "network:nan-Latn-pehoeji": null, "network:nan-Latn-tailo": null, "network:wikidata": null, "network:zh": null, "wheelchair": null, "old_name": null, "old_name:en": null, "old_name:zh": null, "bin": null, "check_date:shelter": null, "note": null, "lit": null, "passenger_information_display": null, "source": null, "alt_name": null, "alt_name:en": null, "crossing:markings": null, "crossing:island": null, "crossing:signals": null, "distance": null, "information": null, "tourism": null, "nat_ref": null, "level": null, "crossing_ref": null, "name:nan": null, "name:nan-Hant": null, "name:nan-Latn-pehoeji": null, "name:nan-Latn-tailo": null, "network:wikipedia": null, "loc_ref": null, "review:PTX": null, "oneway": null, "ref:en": null, "ref:zh": null, "surface": "sett", "incline": "down", "sac_scale": "hiking", "trail_visibility": "excellent", "lanes": null, "sidewalk:right": null, "service": null, "name:lzh": null, "bicycle": null, "tracktype": null, "sidewalk": null, "access": null, "bridge": null, "layer": null, "lane_markings": null, "name:ja": null, "tunnel": null, "handrail": null, "ramp": null, "step_count": null, "bridge:structure": null, "motor_vehicle": null, "cycleway:both": null, "foot": null, "footway": null, "wikidata": null, "horse": null, "maxspeed": null, "width": null, "informal": null, "motorcycle": null, "note:surface": null, "visibility": null, "area": null, "obstacle": null, "leisure": null, "surface_1": null, "bridge:support": null, "ford": null, "survey_date": null, "fixme": null, "man_made": null, "material": null, "operator": null, "operator:type": null, "vehicle": null, "emergency": null, "waterway": null, "bridge:name": null, "covered": null, "sidewalk:left": null, "smoothness": null, "way_id": "('way', 421201235)", "name_display": "七星山步道主峰-東峰稜線", "highway_raw": "steps", "highway_category": "steps", "way_id_str": "('way', 421201235)", "source_type": "named", "orig_index": 570, "orig_name": "七星山步道主峰-東峰稜線", "bridge_flag": false, "steps_flag": true, "version": null, "changeset": null, "timestamp": null, "user": null, "uid": null, "highway_api": null, "surface_api": null, "trail_visibility_api": null, "bridge_api": null, "node_ids_str": null }, "geometry": { "type": "LineString", "coordinates": [ [ 121.5555285, 25.1695035 ], [ 121.5554819, 25.1695197 ], [ 121.5554702, 25.1695197 ], [ 121.5554471, 25.1694973 ], [ 121.5553822, 25.1695085 ], [ 121.5553518, 25.1695018 ], [ 121.555299, 25.1695411 ], [ 121.5552799, 25.1695506 ], [ 121.5552253, 25.1695494 ], [ 121.5551876, 25.1695564 ], [ 121.5551371, 25.1695603 ], [ 121.5551171, 25.1695978 ], [ 121.5551004, 25.1696093 ], [ 121.5550443, 25.1696339 ], [ 121.5549943, 25.1696783 ], [ 121.554948, 25.1696903 ], [ 121.5549022, 25.1697045 ], [ 121.5548767, 25.1697056 ], [ 121.5548426, 25.1696941 ], [ 121.5548099, 25.1696761 ], [ 121.5547827, 25.1696679 ], [ 121.5547413, 25.1696767 ], [ 121.5547095, 25.1696828 ], [ 121.5546542, 25.1696576 ], [ 121.5546315, 25.1696583 ], [ 121.5546106, 25.1696748 ] ] } },
{ "type": "Feature", "properties": { "element": "way", "id": 492111550, "highway": "steps", "crossing": null, "bus": null, "description": null, "name": "七星山步道主峰-東峰稜線", "name:en": null, "name:zh": "七星山步道主峰-東峰稜線", "name:zh-Hans": null, "name:zh-Hant": null, "network": null, "public_transport": null, "ref": null, "shelter": null, "ele": null, "local_ref": null, "bench": null, "network:en": null, "network:nan": null, "network:nan-Hant": null, "network:nan-Latn-pehoeji": null, "network:nan-Latn-tailo": null, "network:wikidata": null, "network:zh": null, "wheelchair": null, "old_name": null, "old_name:en": null, "old_name:zh": null, "bin": null, "check_date:shelter": null, "note": null, "lit": null, "passenger_information_display": null, "source": null, "alt_name": null, "alt_name:en": null, "crossing:markings": null, "crossing:island": null, "crossing:signals": null, "distance": null, "information": null, "tourism": null, "nat_ref": null, "level": null, "crossing_ref": null, "name:nan": null, "name:nan-Hant": null, "name:nan-Latn-pehoeji": null, "name:nan-Latn-tailo": null, "network:wikipedia": null, "loc_ref": null, "review:PTX": null, "oneway": null, "ref:en": null, "ref:zh": null, "surface": "sett", "incline": "up", "sac_scale": "hiking", "trail_visibility": "excellent", "lanes": null, "sidewalk:right": null, "service": null, "name:lzh": null, "bicycle": null, "tracktype": null, "sidewalk": null, "access": null, "bridge": null, "layer": null, "lane_markings": null, "name:ja": null, "tunnel": null, "handrail": null, "ramp": null, "step_count": null, "bridge:structure": null, "motor_vehicle": null, "cycleway:both": null, "foot": null, "footway": null, "wikidata": null, "horse": null, "maxspeed": null, "width": null, "informal": null, "motorcycle": null, "note:surface": null, "visibility": null, "area": null, "obstacle": null, "leisure": null, "surface_1": null, "bridge:support": null, "ford": null, "survey_date": null, "fixme": null, "man_made": null, "material": null, "operator": null, "operator:type": null, "vehicle": null, "emergency": null, "waterway": null, "bridge:name": null, "covered": null, "sidewalk:left": null, "smoothness": null, "way_id": "('way', 492111550)", "name_display": "七星山步道主峰-東峰稜線", "highway_raw": "steps", "highway_category": "steps", "way_id_str": "('way', 492111550)", "source_type": "named", "orig_index": 824, "orig_name": "七星山步道主峰-東峰稜線", "bridge_flag": false, "steps_flag": true, "version": null, "changeset": null, "timestamp": null, "user": null, "uid": null, "highway_api": null, "surface_api": null, "trail_visibility_api": null, "bridge_api": null, "node_ids_str": null }, "geometry": { "type": "LineString", "coordinates": [ [ 121.5543847, 25.1698343 ], [ 121.5543767, 25.1698709 ], [ 121.5543427, 25.1699035 ], [ 121.5543375, 25.1699397 ], [ 121.5543263, 25.1699499 ], [ 121.554297, 25.1699583 ], [ 121.5542629, 25.1699824 ], [ 121.5542282, 25.1699981 ], [ 121.5541945, 25.170025 ], [ 121.5541702, 25.1700613 ], [ 121.5541508, 25.1700866 ], [ 121.5541257, 25.1700905 ], [ 121.5541113, 25.1701147 ], [ 121.5540912, 25.1701312 ], [ 121.554068, 25.170134 ], [ 121.5540595, 25.1701408 ], [ 121.5540604, 25.1701608 ], [ 121.5540447, 25.1701683 ], [ 121.5540384, 25.1702046 ], [ 121.5540244, 25.1702311 ], [ 121.5540127, 25.170253 ], [ 121.5540122, 25.1702991 ], [ 121.553999, 25.1703162 ], [ 121.5538871, 25.170373 ], [ 121.5538542, 25.1703804 ], [ 121.5538394, 25.1703748 ], [ 121.5537933, 25.1704158 ], [ 121.5537418, 25.1704241 ], [ 121.5536825, 25.1704463 ], [ 121.5536747, 25.1704608 ], [ 121.5536448, 25.1704517 ], [ 121.5536339, 25.1704501 ], [ 121.5536167, 25.170464 ], [ 121.5536132, 25.1704929 ], [ 121.5535991, 25.1705091 ], [ 121.5535439, 25.170535 ], [ 121.5535431, 25.1706067 ], [ 121.5535169, 25.1706264 ], [ 121.5534784, 25.1706764 ] ] } },
{ "type": "Feature", "properties": { "element": "way", "id": 585374844, "highway": "steps", "crossing": null, "bus": null, "description": null, "name": "七星山步道冷水坑線", "name:en": null, "name:zh": null, "name:zh-Hans": null, "name:zh-Hant": null, "network": null, "public_transport": null, "ref": null, "shelter": null, "ele": null, "local_ref": null, "bench": null, "network:en": null, "network:nan": null, "network:nan-Hant": null, "network:nan-Latn-pehoeji": null, "network:nan-Latn-tailo": null, "network:wikidata": null, "network:zh": null, "wheelchair": null, "old_name": null, "old_name:en": null, "old_name:zh": null, "bin": null, "check_date:shelter": null, "note": null, "lit": null, "passenger_information_display": null, "source": null, "alt_name": null, "alt_name:en": null, "crossing:markings": null, "crossing:island": null, "crossing:signals": null, "distance": null, "information": null, "tourism": null, "nat_ref": null, "level": null, "crossing_ref": null, "name:nan": null, "name:nan-Hant": null, "name:nan-Latn-pehoeji": null, "name:nan-Latn-tailo": null, "network:wikipedia": null, "loc_ref": null, "review:PTX": null, "oneway": null, "ref:en": null, "ref:zh": null, "surface": "sett", "incline": "up", "sac_scale": "hiking", "trail_visibility": "excellent", "lanes": null, "sidewalk:right": null, "service": null, "name:lzh": null, "bicycle": null, "tracktype": null, "sidewalk": null, "access": null, "bridge": null, "layer": null, "lane_markings": null, "name:ja": null, "tunnel": null, "handrail": null, "ramp": null, "step_count": null, "bridge:structure": null, "motor_vehicle": null, "cycleway:both": null, "foot": null, "footway": null, "wikidata": null, "horse": null, "maxspeed": null, "width": null, "informal": null, "motorcycle": null, "note:surface": null, "visibility": null, "area": null, "obstacle": null, "leisure": null, "surface_1": null, "bridge:support": null, "ford": null, "survey_date": null, "fixme": null, "man_made": null, "material": null, "operator": null, "operator:type": null, "vehicle": null, "emergency": null, "waterway": null, "bridge:name": null, "covered": null, "sidewalk:left": null, "smoothness": null, "way_id": "('way', 585374844)", "name_display": "七星山步道冷水坑線", "highway_raw": "steps", "highway_category": "steps", "way_id_str": "('way', 585374844)", "source_type": "named", "orig_index": 963, "orig_name": "七星山步道冷水坑線", "bridge_flag": false, "steps_flag": true, "version": null, "changeset": null, "timestamp": null, "user": null, "uid": null, "highway_api": null, "surface_api": null, "trail_visibility_api": null, "bridge_api": null, "node_ids_str": null }, "geometry": { "type": "LineString", "coordinates": [ [ 121.5629463, 25.165741 ], [ 121.5629127, 25.1657297 ], [ 121.5628899, 25.1657085 ], [ 121.562858, 25.1657058 ], [ 121.5628298, 25.1657069 ], [ 121.5627342, 25.165737 ], [ 121.5626395, 25.1657283 ], [ 121.5626085, 25.1657305 ], [ 121.5625781, 25.1657584 ], [ 121.5625249, 25.1657876 ], [ 121.5624965, 25.1658522 ], [ 121.5624696, 25.1659002 ], [ 121.5624443, 25.165959 ], [ 121.5624145, 25.166017 ], [ 121.5624149, 25.1660803 ], [ 121.5624233, 25.1661172 ], [ 121.5624337, 25.1661613 ], [ 121.5624616, 25.1662107 ] ] } },
{ "type": "Feature", "properties": { "element": "way", "id": 689317162, "highway": "footway", "crossing": null, "bus": null, "description": null, "name": "七星山步道冷水坑線", "name:en": null, "name:zh": null, "name:zh-Hans": null, "name:zh-Hant": null, "network": null, "public_transport": null, "ref": null, "shelter": null, "ele": null, "local_ref": null, "bench": null, "network:en": null, "network:nan": null, "network:nan-Hant": null, "network:nan-Latn-pehoeji": null, "network:nan-Latn-tailo": null, "network:wikidata": null, "network:zh": null, "wheelchair": null, "old_name": null, "old_name:en": null, "old_name:zh": null, "bin": null, "check_date:shelter": null, "note": null, "lit": null, "passenger_information_display": null, "source": null, "alt_name": null, "alt_name:en": null, "crossing:markings": null, "crossing:island": null, "crossing:signals": null, "distance": null, "information": null, "tourism": null, "nat_ref": null, "level": null, "crossing_ref": null, "name:nan": null, "name:nan-Hant": null, "name:nan-Latn-pehoeji": null, "name:nan-Latn-tailo": null, "network:wikipedia": null, "loc_ref": null, "review:PTX": null, "oneway": null, "ref:en": null, "ref:zh": null, "surface": "sett", "incline": null, "sac_scale": "hiking", "trail_visibility": "excellent", "lanes": null, "sidewalk:right": null, "service": null, "name:lzh": null, "bicycle": null, "tracktype": null, "sidewalk": null, "access": null, "bridge": null, "layer": null, "lane_markings": null, "name:ja": null, "tunnel": null, "handrail": null, "ramp": null, "step_count": null, "bridge:structure": null, "motor_vehicle": null, "cycleway:both": null, "foot": null, "footway": null, "wikidata": null, "horse": null, "maxspeed": null, "width": null, "informal": null, "motorcycle": null, "note:surface": null, "visibility": null, "area": null, "obstacle": null, "leisure": null, "surface_1": null, "bridge:support": null, "ford": null, "survey_date": null, "fixme": null, "man_made": null, "material": null, "operator": null, "operator:type": null, "vehicle": null, "emergency": null, "waterway": null, "bridge:name": null, "covered": null, "sidewalk:left": null, "smoothness": null, "way_id": "('way', 689317162)", "name_display": "七星山步道冷水坑線", "highway_raw": "footway", "highway_category": "trail", "way_id_str": "('way', 689317162)", "source_type": "named", "orig_index": 1071, "orig_name": "七星山步道冷水坑線", "bridge_flag": false, "steps_flag": false, "version": null, "changeset": null, "timestamp": null, "user": null, "uid": null, "highway_api": null, "surface_api": null, "trail_visibility_api": null, "bridge_api": null, "node_ids_str": null }, "geometry": { "type": "LineString", "coordinates": [ [ 121.563259, 25.1659587 ], [ 121.5632059, 25.1659022 ], [ 121.5631884, 25.1658673 ], [ 121.5631263, 25.1658033 ] ] } },
{ "type": "Feature", "properties": { "element": "way", "id": 720961391, "highway": "footway", "crossing": null, "bus": null, "description": null, "name": "七星山步道冷水坑線", "name:en": null, "name:zh": null, "name:zh-Hans": null, "name:zh-Hant": null, "network": null, "public_transport": null, "ref": null, "shelter": null, "ele": null, "local_ref": null, "bench": null, "network:en": null, "network:nan": null, "network:nan-Hant": null, "network:nan-Latn-pehoeji": null, "network:nan-Latn-tailo": null, "network:wikidata": null, "network:zh": null, "wheelchair": null, "old_name": null, "old_name:en": null, "old_name:zh": null, "bin": null, "check_date:shelter": null, "note": null, "lit": null, "passenger_information_display": null, "source": null, "alt_name": null, "alt_name:en": null, "crossing:markings": null, "crossing:island": null, "crossing:signals": null, "distance": null, "information": null, "tourism": null, "nat_ref": null, "level": null, "crossing_ref": null, "name:nan": null, "name:nan-Hant": null, "name:nan-Latn-pehoeji": null, "name:nan-Latn-tailo": null, "network:wikipedia": null, "loc_ref": null, "review:PTX": null, "oneway": null, "ref:en": null, "ref:zh": null, "surface": "sett", "incline": null, "sac_scale": "hiking", "trail_visibility": "excellent", "lanes": null, "sidewalk:right": null, "service": null, "name:lzh": null, "bicycle": null, "tracktype": null, "sidewalk": null, "access": null, "bridge": null, "layer": null, "lane_markings": null, "name:ja": null, "tunnel": null, "handrail": null, "ramp": null, "step_count": null, "bridge:structure": null, "motor_vehicle": null, "cycleway:both": null, "foot": null, "footway": null, "wikidata": null, "horse": null, "maxspeed": null, "width": null, "informal": null, "motorcycle": null, "note:surface": null, "visibility": null, "area": null, "obstacle": null, "leisure": null, "surface_1": null, "bridge:support": null, "ford": null, "survey_date": null, "fixme": null, "man_made": null, "material": null, "operator": null, "operator:type": null, "vehicle": null, "emergency": null, "waterway": null, "bridge:name": null, "covered": null, "sidewalk:left": null, "smoothness": null, "way_id": "('way', 720961391)", "name_display": "七星山步道冷水坑線", "highway_raw": "footway", "highway_category": "trail", "way_id_str": "('way', 720961391)", "source_type": "named", "orig_index": 1108, "orig_name": "七星山步道冷水坑線", "bridge_flag": false, "steps_flag": false, "version": null, "changeset": null, "timestamp": null, "user": null, "uid": null, "highway_api": null, "surface_api": null, "trail_visibility_api": null, "bridge_api": null, "node_ids_str": null }, "geometry": { "type": "LineString", "coordinates": [ [ 121.5593135, 25.1649592 ], [ 121.559217, 25.1649768 ], [ 121.5591419, 25.1650155 ], [ 121.5590644, 25.1650699 ], [ 121.5590418, 25.1651146 ], [ 121.5590246, 25.1651782 ], [ 121.5590132, 25.1652171 ], [ 121.5590018, 25.1652446 ] ] } },
{ "type": "Feature", "properties": { "element": "way", "id": 1227684066, "highway": "steps", "crossing": null, "bus": null, "description": null, "name": "七星山步道主峰-東峰稜線", "name:en": null, "name:zh": "七星山步道主峰-東峰稜線", "name:zh-Hans": null, "name:zh-Hant": null, "network": null, "public_transport": null, "ref": null, "shelter": null, "ele": null, "local_ref": null, "bench": null, "network:en": null, "network:nan": null, "network:nan-Hant": null, "network:nan-Latn-pehoeji": null, "network:nan-Latn-tailo": null, "network:wikidata": null, "network:zh": null, "wheelchair": null, "old_name": null, "old_name:en": null, "old_name:zh": null, "bin": null, "check_date:shelter": null, "note": null, "lit": null, "passenger_information_display": null, "source": null, "alt_name": null, "alt_name:en": null, "crossing:markings": null, "crossing:island": null, "crossing:signals": null, "distance": null, "information": null, "tourism": null, "nat_ref": null, "level": null, "crossing_ref": null, "name:nan": null, "name:nan-Hant": null, "name:nan-Latn-pehoeji": null, "name:nan-Latn-tailo": null, "network:wikipedia": null, "loc_ref": null, "review:PTX": null, "oneway": null, "ref:en": null, "ref:zh": null, "surface": "sett", "incline": null, "sac_scale": "hiking", "trail_visibility": "excellent", "lanes": null, "sidewalk:right": null, "service": null, "name:lzh": null, "bicycle": null, "tracktype": null, "sidewalk": null, "access": null, "bridge": null, "layer": null, "lane_markings": null, "name:ja": null, "tunnel": null, "handrail": null, "ramp": null, "step_count": null, "bridge:structure": null, "motor_vehicle": null, "cycleway:both": null, "foot": null, "footway": null, "wikidata": null, "horse": null, "maxspeed": null, "width": null, "informal": null, "motorcycle": null, "note:surface": null, "visibility": null, "area": null, "obstacle": null, "leisure": null, "surface_1": null, "bridge:support": null, "ford": null, "survey_date": null, "fixme": null, "man_made": null, "material": null, "operator": null, "operator:type": null, "vehicle": null, "emergency": null, "waterway": null, "bridge:name": null, "covered": null, "sidewalk:left": null, "smoothness": null, "way_id": "('way', 1227684066)", "name_display": "七星山步道主峰-東峰稜線", "highway_raw": "steps", "highway_category": "steps", "way_id_str": "('way', 1227684066)", "source_type": "named", "orig_index": 1482, "orig_name": "七星山步道主峰-東峰稜線", "bridge_flag": false, "steps_flag": true, "version": null, "changeset": null, "timestamp": null, "user": null, "uid": null, "highway_api": null, "surface_api": null, "trail_visibility_api": null, "bridge_api": null, "node_ids_str": null }, "geometry": { "type": "LineString", "coordinates": [ [ 121.5544976, 25.1697494 ], [ 121.5544712, 25.1697876 ], [ 121.5544456, 25.169809 ], [ 121.5543847, 25.1698343 ] ] } },
{ "type": "Feature", "properties": { "element": "way", "id": 1227691459, "highway": "footway", "crossing": null, "bus": null, "description": null, "name": "七星山登山步道東峰線", "name:en": null, "name:zh": null, "name:zh-Hans": null, "name:zh-Hant": null, "network": null, "public_transport": null, "ref": null, "shelter": null, "ele": null, "local_ref": null, "bench": null, "network:en": null, "network:nan": null, "network:nan-Hant": null, "network:nan-Latn-pehoeji": null, "network:nan-Latn-tailo": null, "network:wikidata": null, "network:zh": null, "wheelchair": null, "old_name": null, "old_name:en": null, "old_name:zh": null, "bin": null, "check_date:shelter": null, "note": null, "lit": null, "passenger_information_display": null, "source": null, "alt_name": null, "alt_name:en": null, "crossing:markings": null, "crossing:island": null, "crossing:signals": null, "distance": null, "information": null, "tourism": null, "nat_ref": null, "level": null, "crossing_ref": null, "name:nan": null, "name:nan-Hant": null, "name:nan-Latn-pehoeji": null, "name:nan-Latn-tailo": null, "network:wikipedia": null, "loc_ref": null, "review:PTX": null, "oneway": null, "ref:en": null, "ref:zh": null, "surface": null, "incline": null, "sac_scale": "hiking", "trail_visibility": null, "lanes": null, "sidewalk:right": null, "service": null, "name:lzh": null, "bicycle": null, "tracktype": null, "sidewalk": null, "access": null, "bridge": null, "layer": null, "lane_markings": null, "name:ja": null, "tunnel": null, "handrail": null, "ramp": null, "step_count": null, "bridge:structure": null, "motor_vehicle": null, "cycleway:both": null, "foot": null, "footway": null, "wikidata": null, "horse": null, "maxspeed": null, "width": null, "informal": null, "motorcycle": null, "note:surface": null, "visibility": null, "area": null, "obstacle": null, "leisure": null, "surface_1": null, "bridge:support": null, "ford": null, "survey_date": null, "fixme": null, "man_made": null, "material": null, "operator": null, "operator:type": null, "vehicle": null, "emergency": null, "waterway": null, "bridge:name": null, "covered": null, "sidewalk:left": null, "smoothness": null, "way_id": "('way', 1227691459)", "name_display": "七星山登山步道東峰線", "highway_raw": "footway", "highway_category": "trail", "way_id_str": "('way', 1227691459)", "source_type": "named", "orig_index": 1483, "orig_name": "七星山登山步道東峰線", "bridge_flag": false, "steps_flag": false, "version": null, "changeset": null, "timestamp": null, "user": null, "uid": null, "highway_api": null, "surface_api": null, "trail_visibility_api": null, "bridge_api": null, "node_ids_str": null }, "geometry": { "type": "LineString", "coordinates": [ [ 121.5555816, 25.1694567 ], [ 121.5555883, 25.169476 ], [ 121.5555842, 25.1694846 ], [ 121.5555536, 25.1695008 ], [ 121.5555285, 25.1695035 ] ] } },
{ "type": "Feature", "properties": { "element": "way", "id": 1227691460, "highway": "steps", "crossing": null, "bus": null, "description": null, "name": "七星山步道冷水坑線", "name:en": null, "name:zh": null, "name:zh-Hans": null, "name:zh-Hant": null, "network": null, "public_transport": null, "ref": null, "shelter": null, "ele": null, "local_ref": null, "bench": null, "network:en": null, "network:nan": null, "network:nan-Hant": null, "network:nan-Latn-pehoeji": null, "network:nan-Latn-tailo": null, "network:wikidata": null, "network:zh": null, "wheelchair": null, "old_name": null, "old_name:en": null, "old_name:zh": null, "bin": null, "check_date:shelter": null, "note": null, "lit": null, "passenger_information_display": null, "source": null, "alt_name": null, "alt_name:en": null, "crossing:markings": null, "crossing:island": null, "crossing:signals": null, "distance": null, "information": null, "tourism": null, "nat_ref": null, "level": null, "crossing_ref": null, "name:nan": null, "name:nan-Hant": null, "name:nan-Latn-pehoeji": null, "name:nan-Latn-tailo": null, "network:wikipedia": null, "loc_ref": null, "review:PTX": null, "oneway": null, "ref:en": null, "ref:zh": null, "surface": "sett", "incline": "up", "sac_scale": "hiking", "trail_visibility": "excellent", "lanes": null, "sidewalk:right": null, "service": null, "name:lzh": null, "bicycle": null, "tracktype": null, "sidewalk": null, "access": null, "bridge": null, "layer": null, "lane_markings": null, "name:ja": null, "tunnel": null, "handrail": null, "ramp": null, "step_count": null, "bridge:structure": null, "motor_vehicle": null, "cycleway:both": null, "foot": null, "footway": null, "wikidata": null, "horse": null, "maxspeed": null, "width": null, "informal": null, "motorcycle": null, "note:surface": null, "visibility": null, "area": null, "obstacle": null, "leisure": null, "surface_1": null, "bridge:support": null, "ford": null, "survey_date": null, "fixme": null, "man_made": null, "material": null, "operator": null, "operator:type": null, "vehicle": null, "emergency": null, "waterway": null, "bridge:name": null, "covered": null, "sidewalk:left": null, "smoothness": null, "way_id": "('way', 1227691460)", "name_display": "七星山步道冷水坑線", "highway_raw": "steps", "highway_category": "steps", "way_id_str": "('way', 1227691460)", "source_type": "named", "orig_index": 1484, "orig_name": "七星山步道冷水坑線", "bridge_flag": false, "steps_flag": true, "version": null, "changeset": null, "timestamp": null, "user": null, "uid": null, "highway_api": null, "surface_api": null, "trail_visibility_api": null, "bridge_api": null, "node_ids_str": null }, "geometry": { "type": "LineString", "coordinates": [ [ 121.5554757, 25.1692281 ], [ 121.5554951, 25.1692871 ], [ 121.5554893, 25.1693052 ], [ 121.5555158, 25.1693241 ], [ 121.5555131, 25.1693378 ], [ 121.5555294, 25.1693452 ], [ 121.5555271, 25.1693549 ], [ 121.5555195, 25.1693642 ], [ 121.5555256, 25.1693955 ], [ 121.555521, 25.169416 ], [ 121.5555292, 25.169422 ], [ 121.5555582, 25.1694209 ], [ 121.5555702, 25.169431 ], [ 121.5555816, 25.1694567 ] ] } },
{ "type": "Feature", "properties": { "element": "way", "id": 1227691461, "highway": "footway", "crossing": null, "bus": null, "description": null, "name": "七星山步道冷水坑線", "name:en": null, "name:zh": null, "name:zh-Hans": null, "name:zh-Hant": null, "network": null, "public_transport": null, "ref": null, "shelter": null, "ele": null, "local_ref": null, "bench": null, "network:en": null, "network:nan": null, "network:nan-Hant": null, "network:nan-Latn-pehoeji": null, "network:nan-Latn-tailo": null, "network:wikidata": null, "network:zh": null, "wheelchair": null, "old_name": null, "old_name:en": null, "old_name:zh": null, "bin": null, "check_date:shelter": null, "note": null, "lit": null, "passenger_information_display": null, "source": null, "alt_name": null, "alt_name:en": null, "crossing:markings": null, "crossing:island": null, "crossing:signals": null, "distance": null, "information": null, "tourism": null, "nat_ref": null, "level": null, "crossing_ref": null, "name:nan": null, "name:nan-Hant": null, "name:nan-Latn-pehoeji": null, "name:nan-Latn-tailo": null, "network:wikipedia": null, "loc_ref": null, "review:PTX": null, "oneway": null, "ref:en": null, "ref:zh": null, "surface": "sett", "incline": "up", "sac_scale": "hiking", "trail_visibility": "excellent", "lanes": null, "sidewalk:right": null, "service": null, "name:lzh": null, "bicycle": null, "tracktype": null, "sidewalk": null, "access": null, "bridge": null, "layer": null, "lane_markings": null, "name:ja": null, "tunnel": null, "handrail": null, "ramp": null, "step_count": null, "bridge:structure": null, "motor_vehicle": null, "cycleway:both": null, "foot": null, "footway": null, "wikidata": null, "horse": null, "maxspeed": null, "width": null, "informal": null, "motorcycle": null, "note:surface": null, "visibility": null, "area": null, "obstacle": null, "leisure": null, "surface_1": null, "bridge:support": null, "ford": null, "survey_date": null, "fixme": null, "man_made": null, "material": null, "operator": null, "operator:type": null, "vehicle": null, "emergency": null, "waterway": null, "bridge:name": null, "covered": null, "sidewalk:left": null, "smoothness": null, "way_id": "('way', 1227691461)", "name_display": "七星山步道冷水坑線", "highway_raw": "footway", "highway_category": "trail", "way_id_str": "('way', 1227691461)", "source_type": "named", "orig_index": 1485, "orig_name": "七星山步道冷水坑線", "bridge_flag": false, "steps_flag": false, "version": null, "changeset": null, "timestamp": null, "user": null, "uid": null, "highway_api": null, "surface_api": null, "trail_visibility_api": null, "bridge_api": null, "node_ids_str": null }, "geometry": { "type": "LineString", "coordinates": [ [ 121.5553968, 25.1688791 ], [ 121.5553711, 25.1689475 ], [ 121.5553787, 25.1689724 ], [ 121.5553883, 25.1689902 ], [ 121.5553805, 25.1690193 ], [ 121.5553963, 25.1691056 ], [ 121.5554048, 25.1691196 ], [ 121.5554317, 25.1691515 ], [ 121.5554691, 25.1691899 ], [ 121.5554757, 25.1692281 ] ] } },
{ "type": "Feature", "properties": { "element": "way", "id": 1227691462, "highway": "steps", "crossing": null, "bus": null, "description": null, "name": "七星山步道冷水坑線", "name:en": null, "name:zh": null, "name:zh-Hans": null, "name:zh-Hant": null, "network": null, "public_transport": null, "ref": null, "shelter": null, "ele": null, "local_ref": null, "bench": null, "network:en": null, "network:nan": null, "network:nan-Hant": null, "network:nan-Latn-pehoeji": null, "network:nan-Latn-tailo": null, "network:wikidata": null, "network:zh": null, "wheelchair": null, "old_name": null, "old_name:en": null, "old_name:zh": null, "bin": null, "check_date:shelter": null, "note": null, "lit": null, "passenger_information_display": null, "source": null, "alt_name": null, "alt_name:en": null, "crossing:markings": null, "crossing:island": null, "crossing:signals": null, "distance": null, "information": null, "tourism": null, "nat_ref": null, "level": null, "crossing_ref": null, "name:nan": null, "name:nan-Hant": null, "name:nan-Latn-pehoeji": null, "name:nan-Latn-tailo": null, "network:wikipedia": null, "loc_ref": null, "review:PTX": null, "oneway": null, "ref:en": null, "ref:zh": null, "surface": "sett", "incline": "up", "sac_scale": "hiking", "trail_visibility": "excellent", "lanes": null, "sidewalk:right": null, "service": null, "name:lzh": null, "bicycle": null, "tracktype": null, "sidewalk": null, "access": null, "bridge": null, "layer": null, "lane_markings": null, "name:ja": null, "tunnel": null, "handrail": null, "ramp": null, "step_count": null, "bridge:structure": null, "motor_vehicle": null, "cycleway:both": null, "foot": null, "footway": null, "wikidata": null, "horse": null, "maxspeed": null, "width": null, "informal": null, "motorcycle": null, "note:surface": null, "visibility": null, "area": null, "obstacle": null, "leisure": null, "surface_1": null, "bridge:support": null, "ford": null, "survey_date": null, "fixme": null, "man_made": null, "material": null, "operator": null, "operator:type": null, "vehicle": null, "emergency": null, "waterway": null, "bridge:name": null, "covered": null, "sidewalk:left": null, "smoothness": null, "way_id": "('way', 1227691462)", "name_display": "七星山步道冷水坑線", "highway_raw": "steps", "highway_category": "steps", "way_id_str": "('way', 1227691462)", "source_type": "named", "orig_index": 1486, "orig_name": "七星山步道冷水坑線", "bridge_flag": false, "steps_flag": true, "version": null, "changeset": null, "timestamp": null, "user": null, "uid": null, "highway_api": null, "surface_api": null, "trail_visibility_api": null, "bridge_api": null, "node_ids_str": null }, "geometry": { "type": "LineString", "coordinates": [ [ 121.555376, 25.1687437 ], [ 121.5553753, 25.1687547 ], [ 121.5553848, 25.1688064 ], [ 121.5553796, 25.168828 ], [ 121.5553914, 25.1688631 ], [ 121.5553968, 25.1688791 ] ] } },
{ "type": "Feature", "properties": { "element": "way", "id": 1227691463, "highway": "footway", "crossing": null, "bus": null, "description": null, "name": "七星山步道冷水坑線", "name:en": null, "name:zh": null, "name:zh-Hans": null, "name:zh-Hant": null, "network": null, "public_transport": null, "ref": null, "shelter": null, "ele": null, "local_ref": null, "bench": null, "network:en": null, "network:nan": null, "network:nan-Hant": null, "network:nan-Latn-pehoeji": null, "network:nan-Latn-tailo": null, "network:wikidata": null, "network:zh": null, "wheelchair": null, "old_name": null, "old_name:en": null, "old_name:zh": null, "bin": null, "check_date:shelter": null, "note": null, "lit": null, "passenger_information_display": null, "source": null, "alt_name": null, "alt_name:en": null, "crossing:markings": null, "crossing:island": null, "crossing:signals": null, "distance": null, "information": null, "tourism": null, "nat_ref": null, "level": null, "crossing_ref": null, "name:nan": null, "name:nan-Hant": null, "name:nan-Latn-pehoeji": null, "name:nan-Latn-tailo": null, "network:wikipedia": null, "loc_ref": null, "review:PTX": null, "oneway": null, "ref:en": null, "ref:zh": null, "surface": "sett", "incline": "up", "sac_scale": "hiking", "trail_visibility": "excellent", "lanes": null, "sidewalk:right": null, "service": null, "name:lzh": null, "bicycle": null, "tracktype": null, "sidewalk": null, "access": null, "bridge": null, "layer": null, "lane_markings": null, "name:ja": null, "tunnel": null, "handrail": null, "ramp": null, "step_count": null, "bridge:structure": null, "motor_vehicle": null, "cycleway:both": null, "foot": null, "footway": null, "wikidata": null, "horse": null, "maxspeed": null, "width": null, "informal": null, "motorcycle": null, "note:surface": null, "visibility": null, "area": null, "obstacle": null, "leisure": null, "surface_1": null, "bridge:support": null, "ford": null, "survey_date": null, "fixme": null, "man_made": null, "material": null, "operator": null, "operator:type": null, "vehicle": null, "emergency": null, "waterway": null, "bridge:name": null, "covered": null, "sidewalk:left": null, "smoothness": null, "way_id": "('way', 1227691463)", "name_display": "七星山步道冷水坑線", "highway_raw": "footway", "highway_category": "trail", "way_id_str": "('way', 1227691463)", "source_type": "named", "orig_index": 1487, "orig_name": "七星山步道冷水坑線", "bridge_flag": false, "steps_flag": false, "version": null, "changeset": null, "timestamp": null, "user": null, "uid": null, "highway_api": null, "surface_api": null, "trail_visibility_api": null, "bridge_api": null, "node_ids_str": null }, "geometry": { "type": "LineString", "coordinates": [ [ 121.5555931, 25.1685952 ], [ 121.5555358, 25.1686057 ], [ 121.5555091, 25.1686169 ], [ 121.5554936, 25.1686375 ], [ 121.5554311, 25.1686685 ], [ 121.5554146, 25.1686822 ], [ 121.5553993, 25.1687142 ], [ 121.555376, 25.1687437 ] ] } },
{ "type": "Feature", "properties": { "element": "way", "id": 1227691464, "highway": "steps", "crossing": null, "bus": null, "description": null, "name": "七星山步道冷水坑線", "name:en": null, "name:zh": null, "name:zh-Hans": null, "name:zh-Hant": null, "network": null, "public_transport": null, "ref": null, "shelter": null, "ele": null, "local_ref": null, "bench": null, "network:en": null, "network:nan": null, "network:nan-Hant": null, "network:nan-Latn-pehoeji": null, "network:nan-Latn-tailo": null, "network:wikidata": null, "network:zh": null, "wheelchair": null, "old_name": null, "old_name:en": null, "old_name:zh": null, "bin": null, "check_date:shelter": null, "note": null, "lit": null, "passenger_information_display": null, "source": null, "alt_name": null, "alt_name:en": null, "crossing:markings": null, "crossing:island": null, "crossing:signals": null, "distance": null, "information": null, "tourism": null, "nat_ref": null, "level": null, "crossing_ref": null, "name:nan": null, "name:nan-Hant": null, "name:nan-Latn-pehoeji": null, "name:nan-Latn-tailo": null, "network:wikipedia": null, "loc_ref": null, "review:PTX": null, "oneway": null, "ref:en": null, "ref:zh": null, "surface": "sett", "incline": "up", "sac_scale": "hiking", "trail_visibility": "excellent", "lanes": null, "sidewalk:right": null, "service": null, "name:lzh": null, "bicycle": null, "tracktype": null, "sidewalk": null, "access": null, "bridge": null, "layer": null, "lane_markings": null, "name:ja": null, "tunnel": null, "handrail": null, "ramp": null, "step_count": null, "bridge:structure": null, "motor_vehicle": null, "cycleway:both": null, "foot": null, "footway": null, "wikidata": null, "horse": null, "maxspeed": null, "width": null, "informal": null, "motorcycle": null, "note:surface": null, "visibility": null, "area": null, "obstacle": null, "leisure": null, "surface_1": null, "bridge:support": null, "ford": null, "survey_date": null, "fixme": null, "man_made": null, "material": null, "operator": null, "operator:type": null, "vehicle": null, "emergency": null, "waterway": null, "bridge:name": null, "covered": null, "sidewalk:left": null, "smoothness": null, "way_id": "('way', 1227691464)", "name_display": "七星山步道冷水坑線", "highway_raw": "steps", "highway_category": "steps", "way_id_str": "('way', 1227691464)", "source_type": "named", "orig_index": 1488, "orig_name": "七星山步道冷水坑線", "bridge_flag": false, "steps_flag": true, "version": null, "changeset": null, "timestamp": null, "user": null, "uid": null, "highway_api": null, "surface_api": null, "trail_visibility_api": null, "bridge_api": null, "node_ids_str": null }, "geometry": { "type": "LineString", "coordinates": [ [ 121.5558755, 25.1682492 ], [ 121.555875, 25.1682674 ], [ 121.5558865, 25.1682837 ], [ 121.555916, 25.168286 ], [ 121.555934, 25.1682989 ], [ 121.5559463, 25.168315 ], [ 121.5559462, 25.1683206 ], [ 121.5559383, 25.1683426 ], [ 121.5559314, 25.1683716 ], [ 121.5558992, 25.1684146 ], [ 121.5558639, 25.1684263 ], [ 121.5558515, 25.1684183 ], [ 121.555835, 25.1683887 ], [ 121.555839, 25.1683687 ], [ 121.5558231, 25.168368 ], [ 121.5557934, 25.1683672 ], [ 121.5557661, 25.1683593 ], [ 121.5557394, 25.1683827 ], [ 121.5557085, 25.1683817 ], [ 121.5556869, 25.1683889 ], [ 121.5556348, 25.1684219 ], [ 121.5555985, 25.1684645 ], [ 121.5555973, 25.168481 ], [ 121.5556207, 25.1684756 ], [ 121.5556388, 25.1684814 ], [ 121.5556423, 25.1684976 ], [ 121.55562, 25.1685384 ], [ 121.5556128, 25.1685637 ], [ 121.5556161, 25.1685814 ], [ 121.5556094, 25.1685909 ], [ 121.5555931, 25.1685952 ] ] } },
{ "type": "Feature", "properties": { "element": "way", "id": 1227691465, "highway": "steps", "crossing": null, "bus": null, "description": null, "name": "七星山步道冷水坑線", "name:en": null, "name:zh": null, "name:zh-Hans": null, "name:zh-Hant": null, "network": null, "public_transport": null, "ref": null, "shelter": null, "ele": null, "local_ref": null, "bench": null, "network:en": null, "network:nan": null, "network:nan-Hant": null, "network:nan-Latn-pehoeji": null, "network:nan-Latn-tailo": null, "network:wikidata": null, "network:zh": null, "wheelchair": null, "old_name": null, "old_name:en": null, "old_name:zh": null, "bin": null, "check_date:shelter": null, "note": null, "lit": null, "passenger_information_display": null, "source": null, "alt_name": null, "alt_name:en": null, "crossing:markings": null, "crossing:island": null, "crossing:signals": null, "distance": null, "information": null, "tourism": null, "nat_ref": null, "level": null, "crossing_ref": null, "name:nan": null, "name:nan-Hant": null, "name:nan-Latn-pehoeji": null, "name:nan-Latn-tailo": null, "network:wikipedia": null, "loc_ref": null, "review:PTX": null, "oneway": null, "ref:en": null, "ref:zh": null, "surface": "paving_stones", "incline": "up", "sac_scale": "hiking", "trail_visibility": "excellent", "lanes": null, "sidewalk:right": null, "service": null, "name:lzh": null, "bicycle": null, "tracktype": null, "sidewalk": null, "access": null, "bridge": null, "layer": null, "lane_markings": null, "name:ja": null, "tunnel": null, "handrail": null, "ramp": null, "step_count": null, "bridge:structure": null, "motor_vehicle": null, "cycleway:both": null, "foot": null, "footway": null, "wikidata": null, "horse": null, "maxspeed": null, "width": null, "informal": null, "motorcycle": null, "note:surface": null, "visibility": null, "area": null, "obstacle": null, "leisure": null, "surface_1": null, "bridge:support": null, "ford": null, "survey_date": null, "fixme": null, "man_made": null, "material": null, "operator": null, "operator:type": null, "vehicle": null, "emergency": null, "waterway": null, "bridge:name": null, "covered": null, "sidewalk:left": null, "smoothness": null, "way_id": "('way', 1227691465)", "name_display": "七星山步道冷水坑線", "highway_raw": "steps", "highway_category": "steps", "way_id_str": "('way', 1227691465)", "source_type": "named", "orig_index": 1489, "orig_name": "七星山步道冷水坑線", "bridge_flag": false, "steps_flag": true, "version": null, "changeset": null, "timestamp": null, "user": null, "uid": null, "highway_api": null, "surface_api": null, "trail_visibility_api": null, "bridge_api": null, "node_ids_str": null }, "geometry": { "type": "LineString", "coordinates": [ [ 121.5566624, 25.1669356 ], [ 121.556657, 25.166946 ], [ 121.556652, 25.1669552 ], [ 121.5566365, 25.1669661 ], [ 121.5565238, 25.1670218 ], [ 121.5565022, 25.1670357 ], [ 121.5564874, 25.1670536 ], [ 121.5564842, 25.1670795 ], [ 121.556493, 25.1671063 ], [ 121.5565288, 25.1671757 ], [ 121.5565396, 25.1671936 ], [ 121.556539, 25.1672105 ], [ 121.5565315, 25.1672261 ], [ 121.5564988, 25.167264 ], [ 121.5564757, 25.1673204 ], [ 121.5564743, 25.16734 ], [ 121.5564856, 25.1673621 ], [ 121.5564883, 25.1673829 ], [ 121.5564822, 25.167404 ], [ 121.5564613, 25.1674123 ], [ 121.5564391, 25.1674128 ], [ 121.5564308, 25.1674253 ], [ 121.5564189, 25.1674306 ], [ 121.5563973, 25.1674211 ], [ 121.5563971, 25.1674412 ], [ 121.556402, 25.167472 ], [ 121.556387, 25.1675201 ], [ 121.5563969, 25.1675564 ], [ 121.5564259, 25.167615 ], [ 121.5564372, 25.1676346 ], [ 121.5564404, 25.1676487 ], [ 121.5564313, 25.1676562 ], [ 121.5563988, 25.1676499 ], [ 121.5563835, 25.1676595 ], [ 121.5563884, 25.167676 ], [ 121.5563985, 25.167692 ], [ 121.556394, 25.1677118 ], [ 121.5563795, 25.1677199 ], [ 121.5563296, 25.167737 ], [ 121.556314, 25.1677502 ], [ 121.556308, 25.1677597 ], [ 121.5563174, 25.1677798 ], [ 121.5563384, 25.1678016 ], [ 121.556376, 25.1678198 ], [ 121.5563934, 25.1678312 ], [ 121.5563966, 25.16785 ], [ 121.5563987, 25.1678708 ], [ 121.5563689, 25.1678935 ], [ 121.5563383, 25.1678892 ], [ 121.5562415, 25.1678888 ], [ 121.55625, 25.1679279 ], [ 121.5562401, 25.1679546 ], [ 121.5562483, 25.1679914 ], [ 121.5562527, 25.1680511 ], [ 121.5561998, 25.1680562 ], [ 121.5562093, 25.1680885 ], [ 121.5562189, 25.1681096 ], [ 121.5561665, 25.1681106 ], [ 121.5561488, 25.1681002 ], [ 121.5561409, 25.1680941 ], [ 121.5561368, 25.1681017 ], [ 121.5561521, 25.1681506 ], [ 121.5560933, 25.1681614 ], [ 121.5560631, 25.1681466 ], [ 121.5560556, 25.1681458 ], [ 121.5560532, 25.1681581 ], [ 121.5560837, 25.1682218 ], [ 121.5561002, 25.1682407 ], [ 121.5560849, 25.1682424 ], [ 121.5560612, 25.1682312 ], [ 121.5559865, 25.1681671 ], [ 121.5559842, 25.16818 ], [ 121.5559902, 25.16821 ], [ 121.5559885, 25.1682699 ], [ 121.5559777, 25.1682754 ], [ 121.555937, 25.1682425 ], [ 121.5558766, 25.1682202 ], [ 121.5558755, 25.1682492 ] ] } },
{ "type": "Feature", "properties": { "element": "way", "id": 1227691466, "highway": "footway", "crossing": null, "bus": null, "description": null, "name": "七星山步道冷水坑線", "name:en": null, "name:zh": null, "name:zh-Hans": null, "name:zh-Hant": null, "network": null, "public_transport": null, "ref": null, "shelter": null, "ele": null, "local_ref": null, "bench": null, "network:en": null, "network:nan": null, "network:nan-Hant": null, "network:nan-Latn-pehoeji": null, "network:nan-Latn-tailo": null, "network:wikidata": null, "network:zh": null, "wheelchair": null, "old_name": null, "old_name:en": null, "old_name:zh": null, "bin": null, "check_date:shelter": null, "note": null, "lit": null, "passenger_information_display": null, "source": null, "alt_name": null, "alt_name:en": null, "crossing:markings": null, "crossing:island": null, "crossing:signals": null, "distance": null, "information": null, "tourism": null, "nat_ref": null, "level": null, "crossing_ref": null, "name:nan": null, "name:nan-Hant": null, "name:nan-Latn-pehoeji": null, "name:nan-Latn-tailo": null, "network:wikipedia": null, "loc_ref": null, "review:PTX": null, "oneway": null, "ref:en": null, "ref:zh": null, "surface": "sett", "incline": "up", "sac_scale": "hiking", "trail_visibility": "excellent", "lanes": null, "sidewalk:right": null, "service": null, "name:lzh": null, "bicycle": null, "tracktype": null, "sidewalk": null, "access": null, "bridge": null, "layer": null, "lane_markings": null, "name:ja": null, "tunnel": null, "handrail": null, "ramp": null, "step_count": null, "bridge:structure": null, "motor_vehicle": null, "cycleway:both": null, "foot": null, "footway": null, "wikidata": null, "horse": null, "maxspeed": null, "width": null, "informal": null, "motorcycle": null, "note:surface": null, "visibility": null, "area": null, "obstacle": null, "leisure": null, "surface_1": null, "bridge:support": null, "ford": null, "survey_date": null, "fixme": null, "man_made": null, "material": null, "operator": null, "operator:type": null, "vehicle": null, "emergency": null, "waterway": null, "bridge:name": null, "covered": null, "sidewalk:left": null, "smoothness": null, "way_id": "('way', 1227691466)", "name_display": "七星山步道冷水坑線", "highway_raw": "footway", "highway_category": "trail", "way_id_str": "('way', 1227691466)", "source_type": "named", "orig_index": 1490, "orig_name": "七星山步道冷水坑線", "bridge_flag": false, "steps_flag": false, "version": null, "changeset": null, "timestamp": null, "user": null, "uid": null, "highway_api": null, "surface_api": null, "trail_visibility_api": null, "bridge_api": null, "node_ids_str": null }, "geometry": { "type": "LineString", "coordinates": [ [ 121.556526, 25.1666601 ], [ 121.5565428, 25.1666733 ], [ 121.5565652, 25.1667097 ], [ 121.5566127, 25.1667451 ], [ 121.5566298, 25.1667702 ], [ 121.5566443, 25.1668003 ], [ 121.5566636, 25.1668334 ], [ 121.5566696, 25.1668686 ], [ 121.5566665, 25.1669146 ], [ 121.5566624, 25.1669356 ] ] } },
{ "type": "Feature", "properties": { "element": "way", "id": 1227691468, "highway": "steps", "crossing": null, "bus": null, "description": null, "name": "七星山步道冷水坑線", "name:en": null, "name:zh": null, "name:zh-Hans": null, "name:zh-Hant": null, "network": null, "public_transport": null, "ref": null, "shelter": null, "ele": null, "local_ref": null, "bench": null, "network:en": null, "network:nan": null, "network:nan-Hant": null, "network:nan-Latn-pehoeji": null, "network:nan-Latn-tailo": null, "network:wikidata": null, "network:zh": null, "wheelchair": null, "old_name": null, "old_name:en": null, "old_name:zh": null, "bin": null, "check_date:shelter": null, "note": null, "lit": null, "passenger_information_display": null, "source": null, "alt_name": null, "alt_name:en": null, "crossing:markings": null, "crossing:island": null, "crossing:signals": null, "distance": null, "information": null, "tourism": null, "nat_ref": null, "level": null, "crossing_ref": null, "name:nan": null, "name:nan-Hant": null, "name:nan-Latn-pehoeji": null, "name:nan-Latn-tailo": null, "network:wikipedia": null, "loc_ref": null, "review:PTX": null, "oneway": null, "ref:en": null, "ref:zh": null, "surface": "sett", "incline": "up", "sac_scale": "hiking", "trail_visibility": "excellent", "lanes": null, "sidewalk:right": null, "service": null, "name:lzh": null, "bicycle": null, "tracktype": null, "sidewalk": null, "access": null, "bridge": null, "layer": null, "lane_markings": null, "name:ja": null, "tunnel": null, "handrail": null, "ramp": null, "step_count": null, "bridge:structure": null, "motor_vehicle": null, "cycleway:both": null, "foot": null, "footway": null, "wikidata": null, "horse": null, "maxspeed": null, "width": null, "informal": null, "motorcycle": null, "note:surface": null, "visibility": null, "area": null, "obstacle": null, "leisure": null, "surface_1": null, "bridge:support": null, "ford": null, "survey_date": null, "fixme": null, "man_made": null, "material": null, "operator": null, "operator:type": null, "vehicle": null, "emergency": null, "waterway": null, "bridge:name": null, "covered": null, "sidewalk:left": null, "smoothness": null, "way_id": "('way', 1227691468)", "name_display": "七星山步道冷水坑線", "highway_raw": "steps", "highway_category": "steps", "way_id_str": "('way', 1227691468)", "source_type": "named", "orig_index": 1492, "orig_name": "七星山步道冷水坑線", "bridge_flag": false, "steps_flag": true, "version": null, "changeset": null, "timestamp": null, "user": null, "uid": null, "highway_api": null, "surface_api": null, "trail_visibility_api": null, "bridge_api": null, "node_ids_str": null }, "geometry": { "type": "LineString", "coordinates": [ [ 121.5569089, 25.1659311 ], [ 121.5568985, 25.1659198 ], [ 121.556883, 25.1659219 ], [ 121.5568696, 25.1659402 ], [ 121.5568712, 25.165967 ], [ 121.5568779, 25.1659903 ], [ 121.5568695, 25.1660105 ], [ 121.5568363, 25.1660259 ], [ 121.5568228, 25.1660488 ], [ 121.5568211, 25.1660649 ], [ 121.5568042, 25.1660825 ], [ 121.5567943, 25.1661099 ], [ 121.5567971, 25.1661312 ], [ 121.5568102, 25.1661506 ], [ 121.5567981, 25.1661886 ], [ 121.5567749, 25.1662174 ], [ 121.5567602, 25.1662398 ], [ 121.5566988, 25.1662715 ], [ 121.5566874, 25.1662841 ], [ 121.5566796, 25.1663074 ], [ 121.5566415, 25.166339 ], [ 121.5566173, 25.1663407 ], [ 121.5565832, 25.1663526 ], [ 121.5565775, 25.1663828 ], [ 121.5565716, 25.166396 ], [ 121.5565649, 25.1664224 ], [ 121.5565414, 25.1664834 ], [ 121.5565348, 25.1665303 ], [ 121.5565007, 25.1665954 ], [ 121.5564913, 25.166632 ], [ 121.556491, 25.1666538 ], [ 121.556526, 25.1666601 ] ] } },
{ "type": "Feature", "properties": { "element": "way", "id": 1227691470, "highway": "footway", "crossing": null, "bus": null, "description": null, "name": "七星山步道冷水坑線", "name:en": null, "name:zh": null, "name:zh-Hans": null, "name:zh-Hant": null, "network": null, "public_transport": null, "ref": null, "shelter": null, "ele": null, "local_ref": null, "bench": null, "network:en": null, "network:nan": null, "network:nan-Hant": null, "network:nan-Latn-pehoeji": null, "network:nan-Latn-tailo": null, "network:wikidata": null, "network:zh": null, "wheelchair": null, "old_name": null, "old_name:en": null, "old_name:zh": null, "bin": null, "check_date:shelter": null, "note": null, "lit": null, "passenger_information_display": null, "source": null, "alt_name": null, "alt_name:en": null, "crossing:markings": null, "crossing:island": null, "crossing:signals": null, "distance": null, "information": null, "tourism": null, "nat_ref": null, "level": null, "crossing_ref": null, "name:nan": null, "name:nan-Hant": null, "name:nan-Latn-pehoeji": null, "name:nan-Latn-tailo": null, "network:wikipedia": null, "loc_ref": null, "review:PTX": null, "oneway": null, "ref:en": null, "ref:zh": null, "surface": "concrete", "incline": null, "sac_scale": "hiking", "trail_visibility": "excellent", "lanes": null, "sidewalk:right": null, "service": null, "name:lzh": null, "bicycle": null, "tracktype": null, "sidewalk": null, "access": null, "bridge": null, "layer": null, "lane_markings": null, "name:ja": null, "tunnel": null, "handrail": null, "ramp": null, "step_count": null, "bridge:structure": null, "motor_vehicle": null, "cycleway:both": null, "foot": null, "footway": null, "wikidata": null, "horse": null, "maxspeed": null, "width": null, "informal": null, "motorcycle": null, "note:surface": null, "visibility": null, "area": null, "obstacle": null, "leisure": null, "surface_1": null, "bridge:support": null, "ford": null, "survey_date": null, "fixme": null, "man_made": null, "material": null, "operator": null, "operator:type": null, "vehicle": null, "emergency": null, "waterway": null, "bridge:name": null, "covered": null, "sidewalk:left": null, "smoothness": null, "way_id": "('way', 1227691470)", "name_display": "七星山步道冷水坑線", "highway_raw": "footway", "highway_category": "trail", "way_id_str": "('way', 1227691470)", "source_type": "named", "orig_index": 1493, "orig_name": "七星山步道冷水坑線", "bridge_flag": false, "steps_flag": false, "version": null, "changeset": null, "timestamp": null, "user": null, "uid": null, "highway_api": null, "surface_api": null, "trail_visibility_api": null, "bridge_api": null, "node_ids_str": null }, "geometry": { "type": "LineString", "coordinates": [ [ 121.5586734, 25.1654607 ], [ 121.558637, 25.1654586 ], [ 121.558585, 25.1654246 ], [ 121.5585276, 25.1653818 ], [ 121.5584783, 25.1653305 ], [ 121.55848, 25.1652998 ], [ 121.5584825, 25.1652689 ], [ 121.5584708, 25.1652406 ] ] } },
{ "type": "Feature", "properties": { "element": "way", "id": 1227705216, "highway": "steps", "crossing": null, "bus": null, "description": null, "name": "七星山步道冷水坑線", "name:en": null, "name:zh": null, "name:zh-Hans": null, "name:zh-Hant": null, "network": null, "public_transport": null, "ref": null, "shelter": null, "ele": null, "local_ref": null, "bench": null, "network:en": null, "network:nan": null, "network:nan-Hant": null, "network:nan-Latn-pehoeji": null, "network:nan-Latn-tailo": null, "network:wikidata": null, "network:zh": null, "wheelchair": null, "old_name": null, "old_name:en": null, "old_name:zh": null, "bin": null, "check_date:shelter": null, "note": null, "lit": null, "passenger_information_display": null, "source": null, "alt_name": null, "alt_name:en": null, "crossing:markings": null, "crossing:island": null, "crossing:signals": null, "distance": null, "information": null, "tourism": null, "nat_ref": null, "level": null, "crossing_ref": null, "name:nan": null, "name:nan-Hant": null, "name:nan-Latn-pehoeji": null, "name:nan-Latn-tailo": null, "network:wikipedia": null, "loc_ref": null, "review:PTX": null, "oneway": null, "ref:en": null, "ref:zh": null, "surface": "sett", "incline": "up", "sac_scale": "hiking", "trail_visibility": "excellent", "lanes": null, "sidewalk:right": null, "service": null, "name:lzh": null, "bicycle": null, "tracktype": null, "sidewalk": null, "access": null, "bridge": null, "layer": null, "lane_markings": null, "name:ja": null, "tunnel": null, "handrail": null, "ramp": null, "step_count": null, "bridge:structure": null, "motor_vehicle": null, "cycleway:both": null, "foot": null, "footway": null, "wikidata": null, "horse": null, "maxspeed": null, "width": null, "informal": null, "motorcycle": null, "note:surface": null, "visibility": null, "area": null, "obstacle": null, "leisure": null, "surface_1": null, "bridge:support": null, "ford": null, "survey_date": null, "fixme": null, "man_made": null, "material": null, "operator": null, "operator:type": null, "vehicle": null, "emergency": null, "waterway": null, "bridge:name": null, "covered": null, "sidewalk:left": null, "smoothness": null, "way_id": "('way', 1227705216)", "name_display": "七星山步道冷水坑線", "highway_raw": "steps", "highway_category": "steps", "way_id_str": "('way', 1227705216)", "source_type": "named", "orig_index": 1494, "orig_name": "七星山步道冷水坑線", "bridge_flag": false, "steps_flag": true, "version": null, "changeset": null, "timestamp": null, "user": null, "uid": null, "highway_api": null, "surface_api": null, "trail_visibility_api": null, "bridge_api": null, "node_ids_str": null }, "geometry": { "type": "LineString", "coordinates": [ [ 121.5601138, 25.1650255 ], [ 121.5600784, 25.1650064 ], [ 121.5600033, 25.1649829 ] ] } },
{ "type": "Feature", "properties": { "element": "way", "id": 1227705217, "highway": "steps", "crossing": null, "bus": null, "description": null, "name": "七星山步道冷水坑線", "name:en": null, "name:zh": null, "name:zh-Hans": null, "name:zh-Hant": null, "network": null, "public_transport": null, "ref": null, "shelter": null, "ele": null, "local_ref": null, "bench": null, "network:en": null, "network:nan": null, "network:nan-Hant": null, "network:nan-Latn-pehoeji": null, "network:nan-Latn-tailo": null, "network:wikidata": null, "network:zh": null, "wheelchair": null, "old_name": null, "old_name:en": null, "old_name:zh": null, "bin": null, "check_date:shelter": null, "note": null, "lit": null, "passenger_information_display": null, "source": null, "alt_name": null, "alt_name:en": null, "crossing:markings": null, "crossing:island": null, "crossing:signals": null, "distance": null, "information": null, "tourism": null, "nat_ref": null, "level": null, "crossing_ref": null, "name:nan": null, "name:nan-Hant": null, "name:nan-Latn-pehoeji": null, "name:nan-Latn-tailo": null, "network:wikipedia": null, "loc_ref": null, "review:PTX": null, "oneway": null, "ref:en": null, "ref:zh": null, "surface": "paving_stones", "incline": "up", "sac_scale": "hiking", "trail_visibility": "excellent", "lanes": null, "sidewalk:right": null, "service": null, "name:lzh": null, "bicycle": null, "tracktype": null, "sidewalk": null, "access": null, "bridge": null, "layer": null, "lane_markings": null, "name:ja": null, "tunnel": null, "handrail": null, "ramp": null, "step_count": null, "bridge:structure": null, "motor_vehicle": null, "cycleway:both": null, "foot": null, "footway": null, "wikidata": null, "horse": null, "maxspeed": null, "width": null, "informal": null, "motorcycle": null, "note:surface": null, "visibility": null, "area": null, "obstacle": null, "leisure": null, "surface_1": null, "bridge:support": null, "ford": null, "survey_date": null, "fixme": null, "man_made": null, "material": null, "operator": null, "operator:type": null, "vehicle": null, "emergency": null, "waterway": null, "bridge:name": null, "covered": null, "sidewalk:left": null, "smoothness": null, "way_id": "('way', 1227705217)", "name_display": "七星山步道冷水坑線", "highway_raw": "steps", "highway_category": "steps", "way_id_str": "('way', 1227705217)", "source_type": "named", "orig_index": 1495, "orig_name": "七星山步道冷水坑線", "bridge_flag": false, "steps_flag": true, "version": null, "changeset": null, "timestamp": null, "user": null, "uid": null, "highway_api": null, "surface_api": null, "trail_visibility_api": null, "bridge_api": null, "node_ids_str": null }, "geometry": { "type": "LineString", "coordinates": [ [ 121.5614667, 25.1661434 ], [ 121.5614626, 25.1661223 ], [ 121.561459, 25.1660982 ], [ 121.561443, 25.1660716 ], [ 121.561396, 25.1660383 ], [ 121.5613837, 25.1660256 ], [ 121.5613732, 25.1660021 ], [ 121.5613699, 25.1659839 ], [ 121.5613833, 25.1659612 ], [ 121.5613917, 25.1659413 ], [ 121.5614029, 25.1658991 ], [ 121.561428, 25.1658803 ], [ 121.5614391, 25.1658631 ], [ 121.5614374, 25.1658438 ], [ 121.5614197, 25.1658124 ], [ 121.5614007, 25.1657791 ], [ 121.5614052, 25.1657488 ], [ 121.5614019, 25.1657096 ], [ 121.5613853, 25.1656729 ], [ 121.5613473, 25.1656477 ], [ 121.5612881, 25.1656178 ], [ 121.5612497, 25.165595 ], [ 121.5612441, 25.1655581 ], [ 121.5612285, 25.1655237 ], [ 121.5611701, 25.165495 ], [ 121.5611324, 25.1654565 ], [ 121.5610525, 25.1653997 ], [ 121.5609632, 25.1653442 ], [ 121.560872, 25.1652529 ], [ 121.5608051, 25.1652011 ], [ 121.560741, 25.1651647 ], [ 121.560658, 25.1650994 ], [ 121.5605377, 25.1650554 ], [ 121.5603985, 25.1650173 ], [ 121.5603593, 25.1650168 ], [ 121.5602406, 25.1650156 ], [ 121.5601441, 25.1650299 ], [ 121.5601138, 25.1650255 ] ] } },
{ "type": "Feature", "properties": { "element": "way", "id": 1227705218, "highway": "steps", "crossing": null, "bus": null, "description": null, "name": "七星山步道冷水坑線", "name:en": null, "name:zh": null, "name:zh-Hans": null, "name:zh-Hant": null, "network": null, "public_transport": null, "ref": null, "shelter": null, "ele": null, "local_ref": null, "bench": null, "network:en": null, "network:nan": null, "network:nan-Hant": null, "network:nan-Latn-pehoeji": null, "network:nan-Latn-tailo": null, "network:wikidata": null, "network:zh": null, "wheelchair": null, "old_name": null, "old_name:en": null, "old_name:zh": null, "bin": null, "check_date:shelter": null, "note": null, "lit": null, "passenger_information_display": null, "source": null, "alt_name": null, "alt_name:en": null, "crossing:markings": null, "crossing:island": null, "crossing:signals": null, "distance": null, "information": null, "tourism": null, "nat_ref": null, "level": null, "crossing_ref": null, "name:nan": null, "name:nan-Hant": null, "name:nan-Latn-pehoeji": null, "name:nan-Latn-tailo": null, "network:wikipedia": null, "loc_ref": null, "review:PTX": null, "oneway": null, "ref:en": null, "ref:zh": null, "surface": "sett", "incline": "up", "sac_scale": "hiking", "trail_visibility": "excellent", "lanes": null, "sidewalk:right": null, "service": null, "name:lzh": null, "bicycle": null, "tracktype": null, "sidewalk": null, "access": null, "bridge": null, "layer": null, "lane_markings": null, "name:ja": null, "tunnel": null, "handrail": null, "ramp": null, "step_count": null, "bridge:structure": null, "motor_vehicle": null, "cycleway:both": null, "foot": null, "footway": null, "wikidata": null, "horse": null, "maxspeed": null, "width": null, "informal": null, "motorcycle": null, "note:surface": null, "visibility": null, "area": null, "obstacle": null, "leisure": null, "surface_1": null, "bridge:support": null, "ford": null, "survey_date": null, "fixme": null, "man_made": null, "material": null, "operator": null, "operator:type": null, "vehicle": null, "emergency": null, "waterway": null, "bridge:name": null, "covered": null, "sidewalk:left": null, "smoothness": null, "way_id": "('way', 1227705218)", "name_display": "七星山步道冷水坑線", "highway_raw": "steps", "highway_category": "steps", "way_id_str": "('way', 1227705218)", "source_type": "named", "orig_index": 1496, "orig_name": "七星山步道冷水坑線", "bridge_flag": false, "steps_flag": true, "version": null, "changeset": null, "timestamp": null, "user": null, "uid": null, "highway_api": null, "surface_api": null, "trail_visibility_api": null, "bridge_api": null, "node_ids_str": null }, "geometry": { "type": "LineString", "coordinates": [ [ 121.5617149, 25.1663293 ], [ 121.5616709, 25.1663977 ], [ 121.5616711, 25.1664154 ], [ 121.5616798, 25.1664586 ], [ 121.5616767, 25.1664869 ], [ 121.5616695, 25.1665057 ], [ 121.5616439, 25.1665339 ], [ 121.5616261, 25.1665361 ], [ 121.5616045, 25.1665394 ], [ 121.5615919, 25.1665305 ], [ 121.5615688, 25.1665113 ], [ 121.561566, 25.166498 ], [ 121.5615695, 25.1664634 ], [ 121.5615722, 25.1664467 ], [ 121.5615536, 25.1664232 ], [ 121.5615458, 25.1663898 ], [ 121.5615306, 25.1663721 ], [ 121.5614961, 25.166339 ], [ 121.5614639, 25.1663224 ], [ 121.5614532, 25.1663024 ], [ 121.5614389, 25.166272 ], [ 121.5614349, 25.1662516 ], [ 121.5614476, 25.1662169 ], [ 121.5614617, 25.1661661 ], [ 121.5614667, 25.1661434 ] ] } },
{ "type": "Feature", "properties": { "element": "way", "id": 1227705219, "highway": "steps", "crossing": null, "bus": null, "description": null, "name": "七星山步道冷水坑線", "name:en": null, "name:zh": null, "name:zh-Hans": null, "name:zh-Hant": null, "network": null, "public_transport": null, "ref": null, "shelter": null, "ele": null, "local_ref": null, "bench": null, "network:en": null, "network:nan": null, "network:nan-Hant": null, "network:nan-Latn-pehoeji": null, "network:nan-Latn-tailo": null, "network:wikidata": null, "network:zh": null, "wheelchair": null, "old_name": null, "old_name:en": null, "old_name:zh": null, "bin": null, "check_date:shelter": null, "note": null, "lit": null, "passenger_information_display": null, "source": null, "alt_name": null, "alt_name:en": null, "crossing:markings": null, "crossing:island": null, "crossing:signals": null, "distance": null, "information": null, "tourism": null, "nat_ref": null, "level": null, "crossing_ref": null, "name:nan": null, "name:nan-Hant": null, "name:nan-Latn-pehoeji": null, "name:nan-Latn-tailo": null, "network:wikipedia": null, "loc_ref": null, "review:PTX": null, "oneway": null, "ref:en": null, "ref:zh": null, "surface": "paving_stones", "incline": "up", "sac_scale": "hiking", "trail_visibility": "excellent", "lanes": null, "sidewalk:right": null, "service": null, "name:lzh": null, "bicycle": null, "tracktype": null, "sidewalk": null, "access": null, "bridge": null, "layer": null, "lane_markings": null, "name:ja": null, "tunnel": null, "handrail": null, "ramp": null, "step_count": null, "bridge:structure": null, "motor_vehicle": null, "cycleway:both": null, "foot": null, "footway": null, "wikidata": null, "horse": null, "maxspeed": null, "width": null, "informal": null, "motorcycle": null, "note:surface": null, "visibility": null, "area": null, "obstacle": null, "leisure": null, "surface_1": null, "bridge:support": null, "ford": null, "survey_date": null, "fixme": null, "man_made": null, "material": null, "operator": null, "operator:type": null, "vehicle": null, "emergency": null, "waterway": null, "bridge:name": null, "covered": null, "sidewalk:left": null, "smoothness": null, "way_id": "('way', 1227705219)", "name_display": "七星山步道冷水坑線", "highway_raw": "steps", "highway_category": "steps", "way_id_str": "('way', 1227705219)", "source_type": "named", "orig_index": 1497, "orig_name": "七星山步道冷水坑線", "bridge_flag": false, "steps_flag": true, "version": null, "changeset": null, "timestamp": null, "user": null, "uid": null, "highway_api": null, "surface_api": null, "trail_visibility_api": null, "bridge_api": null, "node_ids_str": null }, "geometry": { "type": "LineString", "coordinates": [ [ 121.5624616, 25.1662107 ], [ 121.562408, 25.1662266 ], [ 121.5623295, 25.1662286 ], [ 121.5622478, 25.1662586 ], [ 121.5622298, 25.1662599 ], [ 121.5622187, 25.1662256 ], [ 121.5622086, 25.1662142 ], [ 121.5621959, 25.16621 ], [ 121.5621789, 25.1662144 ], [ 121.5621686, 25.1662319 ], [ 121.5621598, 25.1662502 ], [ 121.5621264, 25.1662786 ], [ 121.5621015, 25.1663079 ], [ 121.5620696, 25.1663464 ], [ 121.5620354, 25.1663651 ], [ 121.5619914, 25.1663589 ], [ 121.5619455, 25.1663548 ], [ 121.5619221, 25.1663468 ], [ 121.5618853, 25.1663177 ], [ 121.5618049, 25.166293 ], [ 121.5617548, 25.1662956 ], [ 121.5617324, 25.1663012 ], [ 121.5617149, 25.1663293 ] ] } },
{ "type": "Feature", "properties": { "element": "way", "id": 1227705221, "highway": "footway", "crossing": null, "bus": null, "description": null, "name": "七星山步道冷水坑線", "name:en": null, "name:zh": null, "name:zh-Hans": null, "name:zh-Hant": null, "network": null, "public_transport": null, "ref": null, "shelter": null, "ele": null, "local_ref": null, "bench": null, "network:en": null, "network:nan": null, "network:nan-Hant": null, "network:nan-Latn-pehoeji": null, "network:nan-Latn-tailo": null, "network:wikidata": null, "network:zh": null, "wheelchair": null, "old_name": null, "old_name:en": null, "old_name:zh": null, "bin": null, "check_date:shelter": null, "note": null, "lit": null, "passenger_information_display": null, "source": null, "alt_name": null, "alt_name:en": null, "crossing:markings": null, "crossing:island": null, "crossing:signals": null, "distance": null, "information": null, "tourism": null, "nat_ref": null, "level": null, "crossing_ref": null, "name:nan": null, "name:nan-Hant": null, "name:nan-Latn-pehoeji": null, "name:nan-Latn-tailo": null, "network:wikipedia": null, "loc_ref": null, "review:PTX": null, "oneway": null, "ref:en": null, "ref:zh": null, "surface": "sett", "incline": null, "sac_scale": "hiking", "trail_visibility": "excellent", "lanes": null, "sidewalk:right": null, "service": null, "name:lzh": null, "bicycle": null, "tracktype": null, "sidewalk": null, "access": null, "bridge": null, "layer": null, "lane_markings": null, "name:ja": null, "tunnel": null, "handrail": null, "ramp": null, "step_count": null, "bridge:structure": null, "motor_vehicle": null, "cycleway:both": null, "foot": null, "footway": null, "wikidata": null, "horse": null, "maxspeed": null, "width": null, "informal": null, "motorcycle": null, "note:surface": null, "visibility": null, "area": null, "obstacle": null, "leisure": null, "surface_1": null, "bridge:support": null, "ford": null, "survey_date": null, "fixme": null, "man_made": null, "material": null, "operator": null, "operator:type": null, "vehicle": null, "emergency": null, "waterway": null, "bridge:name": null, "covered": null, "sidewalk:left": null, "smoothness": null, "way_id": "('way', 1227705221)", "name_display": "七星山步道冷水坑線", "highway_raw": "footway", "highway_category": "trail", "way_id_str": "('way', 1227705221)", "source_type": "named", "orig_index": 1498, "orig_name": "七星山步道冷水坑線", "bridge_flag": false, "steps_flag": false, "version": null, "changeset": null, "timestamp": null, "user": null, "uid": null, "highway_api": null, "surface_api": null, "trail_visibility_api": null, "bridge_api": null, "node_ids_str": null }, "geometry": { "type": "LineString", "coordinates": [ [ 121.5631263, 25.1658033 ], [ 121.5630698, 25.1657707 ], [ 121.5630336, 25.1657556 ], [ 121.5629699, 25.1657495 ], [ 121.5629463, 25.165741 ] ] } },
{ "type": "Feature", "properties": { "element": "way", "id": 1227705222, "highway": "steps", "crossing": null, "bus": null, "description": null, "name": "七星山步道冷水坑線", "name:en": null, "name:zh": null, "name:zh-Hans": null, "name:zh-Hant": null, "network": null, "public_transport": null, "ref": null, "shelter": null, "ele": null, "local_ref": null, "bench": null, "network:en": null, "network:nan": null, "network:nan-Hant": null, "network:nan-Latn-pehoeji": null, "network:nan-Latn-tailo": null, "network:wikidata": null, "network:zh": null, "wheelchair": null, "old_name": null, "old_name:en": null, "old_name:zh": null, "bin": null, "check_date:shelter": null, "note": null, "lit": null, "passenger_information_display": null, "source": null, "alt_name": null, "alt_name:en": null, "crossing:markings": null, "crossing:island": null, "crossing:signals": null, "distance": null, "information": null, "tourism": null, "nat_ref": null, "level": null, "crossing_ref": null, "name:nan": null, "name:nan-Hant": null, "name:nan-Latn-pehoeji": null, "name:nan-Latn-tailo": null, "network:wikipedia": null, "loc_ref": null, "review:PTX": null, "oneway": null, "ref:en": null, "ref:zh": null, "surface": "sett", "incline": "up", "sac_scale": "hiking", "trail_visibility": "excellent", "lanes": null, "sidewalk:right": null, "service": null, "name:lzh": null, "bicycle": null, "tracktype": null, "sidewalk": null, "access": null, "bridge": null, "layer": null, "lane_markings": null, "name:ja": null, "tunnel": null, "handrail": null, "ramp": null, "step_count": null, "bridge:structure": null, "motor_vehicle": null, "cycleway:both": null, "foot": null, "footway": null, "wikidata": null, "horse": null, "maxspeed": null, "width": null, "informal": null, "motorcycle": null, "note:surface": null, "visibility": null, "area": null, "obstacle": null, "leisure": null, "surface_1": null, "bridge:support": null, "ford": null, "survey_date": null, "fixme": null, "man_made": null, "material": null, "operator": null, "operator:type": null, "vehicle": null, "emergency": null, "waterway": null, "bridge:name": null, "covered": null, "sidewalk:left": null, "smoothness": null, "way_id": "('way', 1227705222)", "name_display": "七星山步道冷水坑線", "highway_raw": "steps", "highway_category": "steps", "way_id_str": "('way', 1227705222)", "source_type": "named", "orig_index": 1499, "orig_name": "七星山步道冷水坑線", "bridge_flag": false, "steps_flag": true, "version": null, "changeset": null, "timestamp": null, "user": null, "uid": null, "highway_api": null, "surface_api": null, "trail_visibility_api": null, "bridge_api": null, "node_ids_str": null }, "geometry": { "type": "LineString", "coordinates": [ [ 121.563309, 25.1661728 ], [ 121.5633121, 25.1661623 ], [ 121.5633226, 25.1661329 ], [ 121.5633224, 25.1660908 ], [ 121.5632993, 25.166039 ], [ 121.5632828, 25.1660006 ], [ 121.563259, 25.1659587 ] ] } },
{ "type": "Feature", "properties": { "element": "way", "id": 1301449842, "highway": "footway", "crossing": null, "bus": null, "description": null, "name": "七星山步道主峰-東峰稜線", "name:en": null, "name:zh": "七星山步道主峰-東峰稜線", "name:zh-Hans": null, "name:zh-Hant": null, "network": null, "public_transport": null, "ref": null, "shelter": null, "ele": null, "local_ref": null, "bench": null, "network:en": null, "network:nan": null, "network:nan-Hant": null, "network:nan-Latn-pehoeji": null, "network:nan-Latn-tailo": null, "network:wikidata": null, "network:zh": null, "wheelchair": null, "old_name": null, "old_name:en": null, "old_name:zh": null, "bin": null, "check_date:shelter": null, "note": null, "lit": null, "passenger_information_display": null, "source": null, "alt_name": null, "alt_name:en": null, "crossing:markings": null, "crossing:island": null, "crossing:signals": null, "distance": null, "information": null, "tourism": null, "nat_ref": null, "level": null, "crossing_ref": null, "name:nan": null, "name:nan-Hant": null, "name:nan-Latn-pehoeji": null, "name:nan-Latn-tailo": null, "network:wikipedia": null, "loc_ref": null, "review:PTX": null, "oneway": null, "ref:en": null, "ref:zh": null, "surface": "sett", "incline": null, "sac_scale": "hiking", "trail_visibility": "excellent", "lanes": null, "sidewalk:right": null, "service": null, "name:lzh": null, "bicycle": null, "tracktype": null, "sidewalk": null, "access": null, "bridge": null, "layer": null, "lane_markings": null, "name:ja": null, "tunnel": null, "handrail": null, "ramp": null, "step_count": null, "bridge:structure": null, "motor_vehicle": null, "cycleway:both": null, "foot": null, "footway": null, "wikidata": null, "horse": null, "maxspeed": null, "width": null, "informal": null, "motorcycle": null, "note:surface": null, "visibility": null, "area": null, "obstacle": null, "leisure": null, "surface_1": null, "bridge:support": null, "ford": null, "survey_date": null, "fixme": null, "man_made": null, "material": null, "operator": null, "operator:type": null, "vehicle": null, "emergency": null, "waterway": null, "bridge:name": null, "covered": null, "sidewalk:left": null, "smoothness": null, "way_id": "('way', 1301449842)", "name_display": "七星山步道主峰-東峰稜線", "highway_raw": "footway", "highway_category": "trail", "way_id_str": "('way', 1301449842)", "source_type": "named", "orig_index": 1659, "orig_name": "七星山步道主峰-東峰稜線", "bridge_flag": false, "steps_flag": false, "version": null, "changeset": null, "timestamp": null, "user": null, "uid": null, "highway_api": null, "surface_api": null, "trail_visibility_api": null, "bridge_api": null, "node_ids_str": null }, "geometry": { "type": "LineString", "coordinates": [ [ 121.5546106, 25.1696748 ], [ 121.5544976, 25.1697494 ] ] } },
{ "type": "Feature", "properties": { "element": "way", "id": 230730601, "highway": "footway", "crossing": null, "bus": null, "description": null, "name": "段號：191", "name:en": null, "name:zh": null, "name:zh-Hans": null, "name:zh-Hant": null, "network": null, "public_transport": null, "ref": null, "shelter": null, "ele": null, "local_ref": null, "bench": null, "network:en": null, "network:nan": null, "network:nan-Hant": null, "network:nan-Latn-pehoeji": null, "network:nan-Latn-tailo": null, "network:wikidata": null, "network:zh": null, "wheelchair": null, "old_name": null, "old_name:en": null, "old_name:zh": null, "bin": null, "check_date:shelter": null, "note": null, "lit": null, "passenger_information_display": null, "source": null, "alt_name": null, "alt_name:en": null, "crossing:markings": null, "crossing:island": null, "crossing:signals": null, "distance": null, "information": null, "tourism": null, "nat_ref": null, "level": null, "crossing_ref": null, "name:nan": null, "name:nan-Hant": null, "name:nan-Latn-pehoeji": null, "name:nan-Latn-tailo": null, "network:wikipedia": null, "loc_ref": null, "review:PTX": null, "oneway": null, "ref:en": null, "ref:zh": null, "surface": null, "incline": null, "sac_scale": null, "trail_visibility": null, "lanes": null, "sidewalk:right": null, "service": null, "name:lzh": null, "bicycle": null, "tracktype": null, "sidewalk": null, "access": null, "bridge": null, "layer": null, "lane_markings": null, "name:ja": null, "tunnel": null, "handrail": null, "ramp": null, "step_count": null, "bridge:structure": null, "motor_vehicle": null, "cycleway:both": null, "foot": null, "footway": null, "wikidata": null, "horse": null, "maxspeed": null, "width": null, "informal": null, "motorcycle": null, "note:surface": null, "visibility": null, "area": null, "obstacle": null, "leisure": null, "surface_1": null, "bridge:support": null, "ford": null, "survey_date": null, "fixme": null, "man_made": null, "material": null, "operator": null, "operator:type": null, "vehicle": null, "emergency": null, "waterway": null, "bridge:name": null, "covered": null, "sidewalk:left": null, "smoothness": null, "way_id": "('way', 230730601)", "name_display": "未命名段", "highway_raw": "footway", "highway_category": "trail", "way_id_str": "('way', 230730601)", "source_type": "nan", "orig_index": 191, "orig_name": "段號：191", "bridge_flag": false, "steps_flag": false, "version": null, "changeset": null, "timestamp": null, "user": null, "uid": null, "highway_api": null, "surface_api": null, "trail_visibility_api": null, "bridge_api": null, "node_ids_str": null }, "geometry": { "type": "LineString", "coordinates": [ [ 121.5593135, 25.1649592 ], [ 121.5593713, 25.1649963 ], [ 121.5594153, 25.1650172 ], [ 121.559467, 25.1650254 ], [ 121.5595213, 25.1650391 ], [ 121.5596168, 25.165062 ], [ 121.5596548, 25.1650742 ], [ 121.5596801, 25.1650882 ], [ 121.5597118, 25.1651049 ], [ 121.5597702, 25.1650942 ], [ 121.5597624, 25.1650563 ], [ 121.5597802, 25.1650226 ], [ 121.5598114, 25.1650071 ], [ 121.5598471, 25.1650001 ], [ 121.5598865, 25.1650085 ], [ 121.5600033, 25.1649829 ] ] } },
{ "type": "Feature", "properties": { "element": "way", "id": 492257358, "highway": "service", "crossing": null, "bus": null, "description": null, "name": "段號：825", "name:en": null, "name:zh": null, "name:zh-Hans": null, "name:zh-Hant": null, "network": null, "public_transport": null, "ref": null, "shelter": null, "ele": null, "local_ref": null, "bench": null, "network:en": null, "network:nan": null, "network:nan-Hant": null, "network:nan-Latn-pehoeji": null, "network:nan-Latn-tailo": null, "network:wikidata": null, "network:zh": null, "wheelchair": null, "old_name": null, "old_name:en": null, "old_name:zh": null, "bin": null, "check_date:shelter": null, "note": null, "lit": null, "passenger_information_display": null, "source": null, "alt_name": null, "alt_name:en": null, "crossing:markings": null, "crossing:island": null, "crossing:signals": null, "distance": null, "information": null, "tourism": null, "nat_ref": null, "level": null, "crossing_ref": null, "name:nan": null, "name:nan-Hant": null, "name:nan-Latn-pehoeji": null, "name:nan-Latn-tailo": null, "network:wikipedia": null, "loc_ref": null, "review:PTX": null, "oneway": null, "ref:en": null, "ref:zh": null, "surface": "concrete", "incline": null, "sac_scale": "hiking", "trail_visibility": "excellent", "lanes": null, "sidewalk:right": null, "service": null, "name:lzh": null, "bicycle": null, "tracktype": null, "sidewalk": null, "access": null, "bridge": null, "layer": null, "lane_markings": null, "name:ja": null, "tunnel": null, "handrail": null, "ramp": null, "step_count": null, "bridge:structure": null, "motor_vehicle": null, "cycleway:both": null, "foot": "designated", "footway": null, "wikidata": null, "horse": null, "maxspeed": null, "width": null, "informal": null, "motorcycle": null, "note:surface": null, "visibility": null, "area": null, "obstacle": null, "leisure": null, "surface_1": null, "bridge:support": null, "ford": null, "survey_date": null, "fixme": null, "man_made": null, "material": null, "operator": null, "operator:type": null, "vehicle": null, "emergency": null, "waterway": null, "bridge:name": null, "covered": null, "sidewalk:left": null, "smoothness": null, "way_id": "('way', 492257358)", "name_display": "未命名段", "highway_raw": "service", "highway_category": "service", "way_id_str": "('way', 492257358)", "source_type": "nan", "orig_index": 825, "orig_name": "段號：825", "bridge_flag": false, "steps_flag": false, "version": null, "changeset": null, "timestamp": null, "user": null, "uid": null, "highway_api": null, "surface_api": null, "trail_visibility_api": null, "bridge_api": null, "node_ids_str": null }, "geometry": { "type": "LineString", "coordinates": [ [ 121.5590018, 25.1652446 ], [ 121.5588593, 25.1653015 ], [ 121.5587947, 25.1653329 ], [ 121.5587501, 25.1653632 ], [ 121.5587141, 25.1654228 ], [ 121.5586734, 25.1654607 ] ] } },
{ "type": "Feature", "properties": { "element": "way", "id": 1227504496, "highway": "steps", "crossing": null, "bus": null, "description": null, "name": "段號：1480", "name:en": null, "name:zh": null, "name:zh-Hans": null, "name:zh-Hant": null, "network": null, "public_transport": null, "ref": null, "shelter": null, "ele": null, "local_ref": null, "bench": null, "network:en": null, "network:nan": null, "network:nan-Hant": null, "network:nan-Latn-pehoeji": null, "network:nan-Latn-tailo": null, "network:wikidata": null, "network:zh": null, "wheelchair": null, "old_name": null, "old_name:en": null, "old_name:zh": null, "bin": null, "check_date:shelter": null, "note": null, "lit": null, "passenger_information_display": null, "source": null, "alt_name": null, "alt_name:en": null, "crossing:markings": null, "crossing:island": null, "crossing:signals": null, "distance": null, "information": null, "tourism": null, "nat_ref": null, "level": null, "crossing_ref": null, "name:nan": null, "name:nan-Hant": null, "name:nan-Latn-pehoeji": null, "name:nan-Latn-tailo": null, "network:wikipedia": null, "loc_ref": null, "review:PTX": null, "oneway": null, "ref:en": null, "ref:zh": null, "surface": null, "incline": "up", "sac_scale": null, "trail_visibility": null, "lanes": null, "sidewalk:right": null, "service": null, "name:lzh": null, "bicycle": null, "tracktype": null, "sidewalk": null, "access": null, "bridge": null, "layer": null, "lane_markings": null, "name:ja": null, "tunnel": null, "handrail": null, "ramp": null, "step_count": null, "bridge:structure": null, "motor_vehicle": null, "cycleway:both": null, "foot": null, "footway": null, "wikidata": null, "horse": null, "maxspeed": null, "width": null, "informal": null, "motorcycle": null, "note:surface": null, "visibility": null, "area": null, "obstacle": null, "leisure": null, "surface_1": null, "bridge:support": null, "ford": null, "survey_date": null, "fixme": null, "man_made": null, "material": null, "operator": null, "operator:type": null, "vehicle": null, "emergency": null, "waterway": null, "bridge:name": null, "covered": null, "sidewalk:left": null, "smoothness": null, "way_id": "('way', 1227504496)", "name_display": "未命名段", "highway_raw": "steps", "highway_category": "steps", "way_id_str": "('way', 1227504496)", "source_type": "nan", "orig_index": 1480, "orig_name": "段號：1480", "bridge_flag": false, "steps_flag": true, "version": null, "changeset": null, "timestamp": null, "user": null, "uid": null, "highway_api": null, "surface_api": null, "trail_visibility_api": null, "bridge_api": null, "node_ids_str": null }, "geometry": { "type": "LineString", "coordinates": [ [ 121.5534784, 25.1706764 ], [ 121.553457, 25.1706939 ], [ 121.5534475, 25.1707032 ] ] } },
{ "type": "Feature", "properties": { "element": "way", "id": 1228094366, "highway": "footway", "crossing": "uncontrolled", "bus": null, "description": null, "name": "段號：1500", "name:en": null, "name:zh": null, "name:zh-Hans": null, "name:zh-Hant": null, "network": null, "public_transport": null, "ref": null, "shelter": null, "ele": null, "local_ref": null, "bench": null, "network:en": null, "network:nan": null, "network:nan-Hant": null, "network:nan-Latn-pehoeji": null, "network:nan-Latn-tailo": null, "network:wikidata": null, "network:zh": null, "wheelchair": null, "old_name": null, "old_name:en": null, "old_name:zh": null, "bin": null, "check_date:shelter": null, "note": null, "lit": null, "passenger_information_display": null, "source": null, "alt_name": null, "alt_name:en": null, "crossing:markings": "yes", "crossing:island": null, "crossing:signals": null, "distance": null, "information": null, "tourism": null, "nat_ref": null, "level": null, "crossing_ref": null, "name:nan": null, "name:nan-Hant": null, "name:nan-Latn-pehoeji": null, "name:nan-Latn-tailo": null, "network:wikipedia": null, "loc_ref": null, "review:PTX": null, "oneway": null, "ref:en": null, "ref:zh": null, "surface": null, "incline": null, "sac_scale": null, "trail_visibility": null, "lanes": null, "sidewalk:right": null, "service": null, "name:lzh": null, "bicycle": null, "tracktype": null, "sidewalk": null, "access": null, "bridge": null, "layer": null, "lane_markings": null, "name:ja": null, "tunnel": null, "handrail": null, "ramp": null, "step_count": null, "bridge:structure": null, "motor_vehicle": null, "cycleway:both": null, "foot": null, "footway": "crossing", "wikidata": null, "horse": null, "maxspeed": null, "width": null, "informal": null, "motorcycle": null, "note:surface": null, "visibility": null, "area": null, "obstacle": null, "leisure": null, "surface_1": null, "bridge:support": null, "ford": null, "survey_date": null, "fixme": null, "man_made": null, "material": null, "operator": null, "operator:type": null, "vehicle": null, "emergency": null, "waterway": null, "bridge:name": null, "covered": null, "sidewalk:left": null, "smoothness": null, "way_id": "('way', 1228094366)", "name_display": "未命名段", "highway_raw": "footway", "highway_category": "trail", "way_id_str": "('way', 1228094366)", "source_type": "nan", "orig_index": 1500, "orig_name": "段號：1500", "bridge_flag": false, "steps_flag": false, "version": null, "changeset": null, "timestamp": null, "user": null, "uid": null, "highway_api": null, "surface_api": null, "trail_visibility_api": null, "bridge_api": null, "node_ids_str": null }, "geometry": { "type": "LineString", "coordinates": [ [ 121.5634342, 25.166208 ], [ 121.563378, 25.1661924 ], [ 121.563309, 25.1661728 ] ] } }
]
}
